[{"OBJECT_NAME":"STARLINK-2751","OBJECT_ID":"2021-044AZ","EPOCH":"2026-03-09T07:14:48.501600","MEAN_MOTION":15.30224825,"ECCENTRICITY":0.00015992,"INCLINATION":53.1611,"RA_OF_ASC_NODE":66.7384,"ARG_OF_PERICENTER":90.4191,"MEAN_ANOMALY":269.6993,"EPHEMERIS_TYPE":0,"CLASSIFICATION_TYPE":"U","NORAD_CAT_ID":48685,"ELEMENT_SET_NO":999,"REV_AT_EPOCH":26445,"BSTAR":0.00037077914,"MEAN_MOTION_DOT":0.00010646,"MEAN_MOTION_DDOT":0},{"OBJECT_NAME":"COSMOS 2251 DEB","OBJECT_ID":"1993-036BTX","EPOCH":"2026-02-28T17:34:44.973408","MEAN_MOTION":15.25753352,"ECCENTRICITY":0.00216382,"INCLINATION":73.9681,"RA_OF_ASC_NODE":229.3494,"ARG_OF_PERICENTER":13.6287,"MEAN_ANOMALY":346.5492,"EPHEMERIS_TYPE":0,"CLASSIFICATION_TYPE":"U","NORAD_CAT_ID":38487,"ELEMENT_SET_NO":999,"REV_AT_EPOCH":67986,"BSTAR":0.0024802785,"MEAN_MOTION_DOT":0.00064261,"MEAN_MOTION_DDOT":0}]
